{"type": "FeatureCollection", "features": [ {"type": "Feature", "properties": {"norad_id": 66654, "name": "JACK E", "group": "last-30-days", "lat": -14.020701643744351, "lon": -88.12906761804983, "alt_km": 594.0513901680833, "timestamp": "2025-12-08T15:42:48.537974+00:00", "meta": {"OBJECT_NAME": "JACK E", "OBJECT_ID": "2025-274E", "EPOCH": "2025-12-08T06:07:10.512192", "MEAN_MOTION": 14.92043449, "ECCENTRICITY": 0.00118535, "INCLINATION": 97.739, "RA_OF_ASC_NODE": 269.5323, "ARG_OF_PERICENTER": 272.4792, "MEAN_ANOMALY": 87.507, "EPHEMERIS_TYPE": 0, "CLASSIFICATION_TYPE": "U", "NORAD_CAT_ID": 66654, "ELEMENT_SET_NO": 999, "REV_AT_EPOCH": 173, "BSTAR": 0.00040847508, "MEAN_MOTION_DOT": 4.095e-05, "MEAN_MOTION_DDOT": 0}, "tle": {"line1": "1 66654U 25274E   25342.25498278  .00004095  00000+0  40848-3 0  9992", "line2": "2 66654  97.7390 269.5323 0011853 272.4792  87.5070 14.92043449  1733"}}, "geometry": {"type": "Point", "coordinates": [-88.12906761804983, -14.020701643744351]}}, {"type": "Feature", "properties": {"norad_id": 66655, "name": "2025-274F", "group": "last-30-days", "lat": -4.753125724433932, "lon": -89.42445796253071, "alt_km": 590.4018480614568, "timestamp": "2025-12-08T15:42:48.537984+00:00", "meta": {"OBJECT_NAME": "2025-274F", "OBJECT_ID": "2025-274F", "EPOCH": "2025-12-08T07:41:22.922016", "MEAN_MOTION": 14.92490582, "ECCENTRICITY": 0.00056282, "INCLINATION": 97.7327, "RA_OF_ASC_NODE": 269.5999, "ARG_OF_PERICENTER": 326.058, "MEAN_ANOMALY": 34.0278, "EPHEMERIS_TYPE": 0, "CLASSIFICATION_TYPE": "U", "NORAD_CAT_ID": 66655, "ELEMENT_SET_NO": 999, "REV_AT_EPOCH": 174, "BSTAR": 0.0013023427, "MEAN_MOTION_DOT": 0.00013331, "MEAN_MOTION_DDOT": 0}, "tle": {"line1": "1 66655U 25274F   25342.32040419  .00013331  00000+0  13023-2 0  9998", "line2": "2 66655  97.7327 269.5999 0005628 326.0580  34.0278 14.92490582  1749"}}, "geometry": {"type": "Point", "coordinates": [-89.42445796253071, -4.753125724433932]}}, {"type": "Feature", "properties": {"norad_id": 66656, "name": "2025-274G", "group": "last-30-days", "lat": -6.251564023580863, "lon": -89.21867713404522, "alt_km": 593.3928241482663, "timestamp": "2025-12-08T15:42:48.537994+00:00", "meta": {"OBJECT_NAME": "2025-274G", "OBJECT_ID": "2025-274G", "EPOCH": "2025-12-08T06:05:08.666592", "MEAN_MOTION": 14.92231241, "ECCENTRICITY": 0.00125042, "INCLINATION": 97.7388, "RA_OF_ASC_NODE": 269.5337, "ARG_OF_PERICENTER": 274.294, "MEAN_ANOMALY": 85.685, "EPHEMERIS_TYPE": 0, "CLASSIFICATION_TYPE": "U", "NORAD_CAT_ID": 66656, "ELEMENT_SET_NO": 999, "REV_AT_EPOCH": 173, "BSTAR": 0.00042912817, "MEAN_MOTION_DOT": 4.326e-05, "MEAN_MOTION_DDOT": 0}, "tle": {"line1": "1 66656U 25274G   25342.25357253  .00004326  00000+0  42913-3 0  9993", "line2": "2 66656  97.7388 269.5337 0012504 274.2940  85.6850 14.92231241  1730"}}, "geometry": {"type": "Point", "coordinates": [-89.21867713404522, -6.251564023580863]}}, {"type": "Feature", "properties": {"norad_id": 66657, "name": "SPIRONE", "group": "last-30-days", "lat": 1.360702293593037, "lon": -90.2545018861479, "alt_km": 590.5806299904098, "timestamp": "2025-12-08T15:42:48.538004+00:00", "meta": {"OBJECT_NAME": "SPIRONE", "OBJECT_ID": "2025-274H", "EPOCH": "2025-12-08T01:13:30.635328", "MEAN_MOTION": 14.92408405, "ECCENTRICITY": 0.00109817, "INCLINATION": 97.7387, "RA_OF_ASC_NODE": 269.3374, "ARG_OF_PERICENTER": 294.0739, "MEAN_ANOMALY": 65.9331, "EPHEMERIS_TYPE": 0, "CLASSIFICATION_TYPE": "U", "NORAD_CAT_ID": 66657, "ELEMENT_SET_NO": 999, "REV_AT_EPOCH": 170, "BSTAR": 0.00037849596, "MEAN_MOTION_DOT": 3.824e-05, "MEAN_MOTION_DDOT": 0}, "tle": {"line1": "1 66657U 25274H   25342.05104902  .00003824  00000+0  37850-3 0  9999", "line2": "2 66657  97.7387 269.3374 0010981 294.0739  65.9331 14.92408405  1702"}}, "geometry": {"type": "Point", "coordinates": [-90.2545018861479, 1.360702293593037]}}, {"type": "Feature", "properties": {"norad_id": 66658, "name": "2025-274J", "group": "last-30-days", "lat": 8.83360615322727, "lon": -91.27707298889433, "alt_km": 589.4872045600996, "timestamp": "2025-12-08T15:42:48.538016+00:00", "meta": {"OBJECT_NAME": "2025-274J", "OBJECT_ID": "2025-274J", "EPOCH": "2025-12-08T06:01:12.095616", "MEAN_MOTION": 14.92583165, "ECCENTRICITY": 0.00115832, "INCLINATION": 97.7387, "RA_OF_ASC_NODE": 269.5369, "ARG_OF_PERICENTER": 296.1816, "MEAN_ANOMALY": 63.8212, "EPHEMERIS_TYPE": 0, "CLASSIFICATION_TYPE": "U", "NORAD_CAT_ID": 66658, "ELEMENT_SET_NO": 999, "REV_AT_EPOCH": 173, "BSTAR": 0.0003872742, "MEAN_MOTION_DOT": 3.932e-05, "MEAN_MOTION_DDOT": 0}, "tle": {"line1": "1 66658U 25274J   25342.25083444  .00003932  00000+0  38727-3 0  9993", "line2": "2 66658  97.7387 269.5369 0011583 296.1816  63.8212 14.92583165  1732"}}, "geometry": {"type": "Point", "coordinates": [-91.27707298889433, 8.83360615322727]}}, {"type": "Feature", "properties": {"norad_id": 66659, "name": "JACK K", "group": "last-30-days", "lat": 16.77528027763598, "lon": -92.4118037000382, "alt_km": 588.5618519658565, "timestamp": "2025-12-08T15:42:48.538030+00:00", "meta": {"OBJECT_NAME": "JACK K", "OBJECT_ID": "2025-274K", "EPOCH": "2025-12-08T05:59:07.622592", "MEAN_MOTION": 14.92769496, "ECCENTRICITY": 0.00123128, "INCLINATION": 97.7389, "RA_OF_ASC_NODE": 269.5391, "ARG_OF_PERICENTER": 297.4062, "MEAN_ANOMALY": 62.5904, "EPHEMERIS_TYPE": 0, "CLASSIFICATION_TYPE": "U", "NORAD_CAT_ID": 66659, "ELEMENT_SET_NO": 999, "REV_AT_EPOCH": 173, "BSTAR": 0.000393395, "MEAN_MOTION_DOT": 4.015e-05, "MEAN_MOTION_DDOT": 0}, "tle": {"line1": "1 66659U 25274K   25342.24939378  .00004015  00000+0  39340-3 0  9994", "line2": "2 66659  97.7389 269.5391 0012312 297.4062  62.5904 14.92769496  1735"}}, "geometry": {"type": "Point", "coordinates": [-92.4118037000382, 16.77528027763598]}}, {"type": "Feature", "properties": {"norad_id": 66660, "name": "K-HERO", "group": "last-30-days", "lat": 23.15848987284068, "lon": -93.39393802147785, "alt_km": 587.9333223418134, "timestamp": "2025-12-08T15:42:48.538040+00:00", "meta": {"OBJECT_NAME": "K-HERO", "OBJECT_ID": "2025-274L", "EPOCH": "2025-12-08T05:57:27.537696", "MEAN_MOTION": 14.92919712, "ECCENTRICITY": 0.00129254, "INCLINATION": 97.7394, "RA_OF_ASC_NODE": 269.5412, "ARG_OF_PERICENTER": 297.995, "MEAN_ANOMALY": 61.9962, "EPHEMERIS_TYPE": 0, "CLASSIFICATION_TYPE": "U", "NORAD_CAT_ID": 66660, "ELEMENT_SET_NO": 999, "REV_AT_EPOCH": 173, "BSTAR": 0.00041545386, "MEAN_MOTION_DOT": 4.26e-05, "MEAN_MOTION_DDOT": 0}, "tle": {"line1": "1 66660U 25274L   25342.24823539  .00004260  00000+0  41545-3 0  9999", "line2": "2 66660  97.7394 269.5412 0012925 297.9950  61.9962 14.92919712  1733"}}, "geometry": {"type": "Point", "coordinates": [-93.39393802147785, 23.15848987284068]}}, {"type": "Feature", "properties": {"norad_id": 66661, "name": "SNUGLITE-III", "group": "last-30-days", "lat": 29.635872793024443, "lon": -94.49392605269546, "alt_km": 587.3331612632919, "timestamp": "2025-12-08T15:42:48.538050+00:00", "meta": {"OBJECT_NAME": "SNUGLITE-III", "OBJECT_ID": "2025-274M", "EPOCH": "2025-12-08T07:32:16.033344", "MEAN_MOTION": 14.93065178, "ECCENTRICITY": 0.00135592, "INCLINATION": 97.7392, "RA_OF_ASC_NODE": 269.6083, "ARG_OF_PERICENTER": 298.7722, "MEAN_ANOMALY": 61.2135, "EPHEMERIS_TYPE": 0, "CLASSIFICATION_TYPE": "U", "NORAD_CAT_ID": 66661, "ELEMENT_SET_NO": 999, "REV_AT_EPOCH": 174, "BSTAR": 0.00032623995, "MEAN_MOTION_DOT": 3.346e-05, "MEAN_MOTION_DDOT": 0}, "tle": {"line1": "1 66661U 25274M   25342.31407446  .00003346  00000+0  32624-3 0  9995", "line2": "2 66661  97.7392 269.6083 0013559 298.7722  61.2135 14.93065178  1742"}}, "geometry": {"type": "Point", "coordinates": [-94.49392605269546, 29.635872793024443]}}, {"type": "Feature", "properties": {"norad_id": 66662, "name": "2025-274N", "group": "last-30-days", "lat": 32.23213323063389, "lon": -94.97437393397158, "alt_km": 587.3051210507028, "timestamp": "2025-12-08T15:42:48.538060+00:00", "meta": {"OBJECT_NAME": "2025-274N", "OBJECT_ID": "2025-274N", "EPOCH": "2025-12-08T07:31:34.703040", "MEAN_MOTION": 14.93111833, "ECCENTRICITY": 0.00139092, "INCLINATION": 97.739, "RA_OF_ASC_NODE": 269.6089, "ARG_OF_PERICENTER": 298.3021, "MEAN_ANOMALY": 61.6794, "EPHEMERIS_TYPE": 0, "CLASSIFICATION_TYPE": "U", "NORAD_CAT_ID": 66662, "ELEMENT_SET_NO": 999, "REV_AT_EPOCH": 174, "BSTAR": 0.00025183487, "MEAN_MOTION_DOT": 2.573e-05, "MEAN_MOTION_DDOT": 0}, "tle": {"line1": "1 66662U 25274N   25342.31359610  .00002573  00000+0  25183-3 0  9998", "line2": "2 66662  97.7390 269.6089 0013909 298.3021  61.6794 14.93111833  1749"}}, "geometry": {"type": "Point", "coordinates": [-94.97437393397158, 32.23213323063389]}}, {"type": "Feature", "properties": {"norad_id": 66663, "name": "KSLV-II R/B", "group": "last-30-days", "lat": -33.69052628056854, "lon": 84.83419030001453, "alt_km": 597.8898500947034, "timestamp": "2025-12-08T15:42:48.538070+00:00", "meta": {"OBJECT_NAME": "KSLV-II R/B", "OBJECT_ID": "2025-274P", "EPOCH": "2025-12-06T19:27:04.446432", "MEAN_MOTION": 14.97226496, "ECCENTRICITY": 0.00484111, "INCLINATION": 97.7412, "RA_OF_ASC_NODE": 268.2109, "ARG_OF_PERICENTER": 339.2416, "MEAN_ANOMALY": 20.6839, "EPHEMERIS_TYPE": 0, "CLASSIFICATION_TYPE": "U", "NORAD_CAT_ID": 66663, "ELEMENT_SET_NO": 999, "REV_AT_EPOCH": 152, "BSTAR": 0.00053388811, "MEAN_MOTION_DOT": 6.269e-05, "MEAN_MOTION_DDOT": 0}, "tle": {"line1": "1 66663U 25274P   25340.81046813  .00006269  00000+0  53389-3 0  9995", "line2": "2 66663  97.7412 268.2109 0048411 339.2416  20.6839 14.97226496  1529"}}, "geometry": {"type": "Point", "coordinates": [84.83419030001453, -33.69052628056854]}}]}